NORAD_CAT_ID,OBJECT_NAME,OBJECT_TYPE,EPOCH,MEAN_MOTION,ECCENTRICITY,INCLINATION,RA_OF_ASC_NODE,ARG_OF_PERICENTER,MEAN_ANOMALY,BSTAR,MEAN_MOTION_DOT,MEAN_MOTION_DDOT,TLE_LINE0,TLE_LINE1,TLE_LINE2,SEMIMAJOR_AXIS,PERIOD,APOGEE,PERIGEE,DECAYED
56797.0,STARLINK-6058,PAYLOAD,2024-04-21 19:51:47,14.98335751,0.0002501,70.0005,276.3259,266.5468,93.5405,-0.00010155,-1.305e-05,0.0,0 STARLINK-6058,1 56797U 23078AG  24112.82763136 -.00001305  00000-0 -10155-3 0  9996,2 56797  70.0005 276.3259 0002501 266.5468  93.5405 14.98335751 50059,6950.175,96.107,573.778,570.302,0.0
56797.0,STARLINK-6058,PAYLOAD,2024-04-21 21:27:55,14.98330682,0.0002828,70.0006,276.1579,268.9185,91.165,1.4923e-05,8.5e-07,0.0,0 STARLINK-6058,1 56797U 23078AG  24112.89439163  .00000085  00000-0  14923-4 0  9993,2 56797  70.0006 276.1579 0002828 268.9185  91.1650 14.98330682 49802,6950.191,96.107,574.021,570.09,0.0
56797.0,STARLINK-6058,PAYLOAD,2024-04-22 10:17:00,14.98323868,0.0002561,70.0014,274.8124,259.4686,100.6185,2.2799e-05,1.79e-06,0.0,0 STARLINK-6058,1 56797U 23078AG  24113.42847528  .00000179  00000-0  22799-4 0  9995,2 56797  70.0014 274.8124 0002561 259.4686 100.6185 14.98323868 50143,6950.212,96.107,573.857,570.297,0.0
56797.0,STARLINK-6058,PAYLOAD,2024-04-22 19:53:48,14.98322419,0.0002583,70.0011,273.8014,253.4186,106.6689,6.0162e-06,-2.1e-07,0.0,0 STARLINK-6058,1 56797U 23078AG  24113.82903800 -.00000021  00000-0  60162-5 0  9999,2 56797  70.0011 273.8014 0002583 253.4186 106.6689 14.98322419 49942,6950.216,96.107,573.877,570.286,0.0
56797.0,STARLINK-6058,PAYLOAD,2024-04-23 11:55:09,14.98330225,0.0002657,70.0009,272.1175,253.081,107.0058,7.8932e-05,8.49e-06,0.0,0 STARLINK-6058,1 56797U 23078AG  24114.49663260  .00000849  00000-0  78932-4 0  9996,2 56797  70.0009 272.1175 0002657 253.0810 107.0058 14.98330225 50302,6950.192,96.107,573.904,570.211,0.0
56797.0,STARLINK-6058,PAYLOAD,2024-04-23 13:31:17,14.98330108,0.0002664,70.0009,271.9491,252.6538,107.433,7.5855e-05,8.12e-06,0.0,0 STARLINK-6058,1 56797U 23078AG  24114.56339260  .00000812  00000-0  75855-4 0  9995,2 56797  70.0009 271.9491 0002664 252.6538 107.4330 14.98330108 50059,6950.193,96.107,573.909,570.206,0.0
56797.0,STARLINK-6058,PAYLOAD,2024-04-23 19:55:49,14.98332029,0.0002654,70.001,271.2758,253.3301,106.7566,9.3686e-05,1.025e-05,0.0,0 STARLINK-6058,1 56797U 23078AG  24114.83043108  .00001025  00000-0  93686-4 0  9997,2 56797  70.0010 271.2758 0002654 253.3301 106.7566 14.98332029 50096,6950.187,96.107,573.896,570.207,0.0
56797.0,STARLINK-6058,PAYLOAD,2024-04-24 11:57:10,14.98325821,0.0002625,70.0009,269.592,253.4385,106.6486,8.4117e-05,9.11e-06,0.0,0 STARLINK-6058,1 56797U 23078AG  24115.49803593  .00000911  00000-0  84117-4 0  9994,2 56797  70.0009 269.5920 0002625 253.4385 106.6486 14.98325821 50458,6950.206,96.107,573.895,570.246,0.0
56797.0,STARLINK-6058,PAYLOAD,2024-04-24 13:33:18,14.98325707,0.0002636,70.0009,269.4236,253.523,106.5639,8.0067e-05,8.62e-06,0.0,0 STARLINK-6058,1 56797U 23078AG  24115.56479626  .00000862  00000-0  80067-4 0  9993,2 56797  70.0009 269.4236 0002636 253.5230 106.5639 14.98325707 50204,6950.206,96.107,573.903,570.239,0.0
56797.0,STARLINK-6058,PAYLOAD,2024-04-24 19:57:50,14.98325821,0.0002651,70.0011,268.7506,255.0713,105.0153,7.4292e-05,7.93e-06,0.0,0 STARLINK-6058,1 56797U 23078AG  24115.83183738  .00000793  00000-0  74292-4 0  9995,2 56797  70.0011 268.7506 0002651 255.0713 105.0153 14.98325821 50245,6950.206,96.107,573.913,570.228,0.0
56797.0,STARLINK-6058,PAYLOAD,2024-04-25 11:59:11,14.98330036,0.0002617,70.0014,267.0683,254.3129,105.7741,-2.3976e-05,-3.79e-06,0.0,0 STARLINK-6058,1 56797U 23078AG  24116.49943790 -.00000379  00000-0 -23976-4 0  9995,2 56797  70.0014 267.0683 0002617 254.3129 105.7741 14.98330036 50605,6950.193,96.107,573.877,570.239,0.0
56797.0,STARLINK-6058,PAYLOAD,2024-04-25 15:11:27,14.98330142,0.0002608,70.0015,266.7316,253.9795,106.1077,-2.1135e-05,-3.45e-06,0.0,0 STARLINK-6058,1 56797U 23078AG  24116.63295770 -.00000345  00000-0 -21135-4 0  9997,2 56797  70.0015 266.7316 0002608 253.9795 106.1077 14.98330142 50367,6950.192,96.107,573.87,570.245,0.0
56797.0,STARLINK-6058,PAYLOAD,2024-04-25 19:59:51,14.98333142,0.0002583,70.0019,266.2255,269.5582,90.5281,-1.8381e-05,-3.12e-06,0.0,0 STARLINK-6058,1 56797U 23078AG  24116.83323716 -.00000312  00000-0 -18381-4 0  9994,2 56797  70.0019 266.2255 0002583 269.5582  90.5281 14.98333142 50396,6950.183,96.107,573.843,570.253,0.0
56797.0,STARLINK-6058,PAYLOAD,2024-04-26 12:01:11,14.98331572,0.0002672,70.0013,264.5424,267.9052,92.1801,9.8842e-05,1.087e-05,0.0,0 STARLINK-6058,1 56797U 23078AG  24117.50083320  .00001087  00000-0  98842-4 0  9991,2 56797  70.0013 264.5424 0002672 267.9052  92.1801 14.98331572 50753,6950.188,96.107,573.91,570.196,0.0
56797.0,STARLINK-6058,PAYLOAD,2024-04-26 13:37:20,14.98331427,0.0002578,70.0015,264.3737,268.4966,91.5898,0.00010918,1.21e-05,0.0,0 STARLINK-6058,1 56797U 23078AG  24117.56759308  .00001210  00000-0  10918-3 0  9998,2 56797  70.0015 264.3737 0002578 268.4966  91.5898 14.98331427 50506,6950.188,96.107,573.845,570.262,0.0
56797.0,STARLINK-6058,PAYLOAD,2024-04-26 20:01:51,14.98338644,0.0002699,70.001,263.7004,263.8164,96.2688,0.00016783,1.911e-05,0.0,0 STARLINK-6058,1 56797U 23078AG  24117.83462596  .00001911  00000-0  16783-3 0  9992,2 56797  70.0010 263.7004 0002699 263.8164  96.2688 14.98338644 50545,6950.166,96.106,573.907,570.155,0.0
56797.0,STARLINK-6058,PAYLOAD,2024-04-27 12:03:13,14.98331188,0.0002578,70.0012,262.0166,263.8055,96.281,3.737e-05,3.53e-06,0.0,0 STARLINK-6058,1 56797U 23078AG  24118.50223447  .00000353  00000-0  37370-4 0  9992,2 56797  70.0012 262.0166 0002578 263.8055  96.2810 14.98331188 50906,6950.189,96.107,573.846,570.262,0.0
56797.0,STARLINK-6058,PAYLOAD,2024-04-27 13:39:21,14.98330769,0.0002582,70.0012,261.8482,264.3603,95.7262,2.8423e-05,2.46e-06,0.0,0 STARLINK-6058,1 56797U 23078AG  24118.56899441  .00000246  00000-0  28423-4 0  9991,2 56797  70.0012 261.8482 0002582 264.3603  95.7262 14.98330769 50655,6950.191,96.107,573.85,570.261,0.0
56797.0,STARLINK-6058,PAYLOAD,2024-04-27 20:03:53,14.98331353,0.0002598,70.0011,261.175,263.339,96.7473,3.0535e-05,2.71e-06,0.0,0 STARLINK-6058,1 56797U 23078AG  24118.83603373  .00000271  00000-0  30535-4 0  9993,2 56797  70.0011 261.1750 0002598 263.3390  96.7473 14.98331353 50693,6950.189,96.107,573.859,570.248,0.0
56797.0,STARLINK-6058,PAYLOAD,2024-04-28 12:05:14,14.9832437,0.0002544,70.0012,259.4927,262.4315,97.6555,-0.00011365,-1.448e-05,0.0,0 STARLINK-6058,1 56797U 23078AG  24119.50364118 -.00001448  00000-0 -11365-3 0  9997,2 56797  70.0012 259.4927 0002544 262.4315  97.6555 14.98324370 51051,6950.21,96.107,573.843,570.307,0.0
56797.0,STARLINK-6058,PAYLOAD,2024-04-28 15:17:30,14.98322208,0.0002574,70.0012,259.1552,267.3779,92.7086,-0.00012418,-1.574e-05,0.0,0 STARLINK-6058,1 56797U 23078AG  24119.63716337 -.00001574  00000-0 -12418-3 0  9995,2 56797  70.0012 259.1552 0002574 267.3779  92.7086 14.98322208 50819,6950.217,96.107,573.871,570.293,0.0
56797.0,STARLINK-6058,PAYLOAD,2024-04-28 18:29:47,14.98323319,0.0002675,70.0005,258.8189,265.3183,94.7671,-0.00016501,-2.061e-05,0.0,0 STARLINK-6058,1 56797U 23078AG  24119.77068413 -.00002061  00000-0 -16501-3 0  9994,2 56797  70.0005 258.8189 0002675 265.3183  94.7671 14.98323319 50830,6950.214,96.107,573.938,570.219,0.0
56797.0,STARLINK-6058,PAYLOAD,2024-04-29 02:30:25,14.98383247,0.0002978,70.0008,257.9773,260.7777,99.3045,-0.0010102,-0.00012142,0.0,0 STARLINK-6058,1 56797U 23078AG  24120.10446427 -.00012142  00000-0 -10102-2 0  9999,2 56797  70.0008 257.9773 0002978 260.7777  99.3045 14.98383247 51143,6950.028,96.104,573.963,569.824,0.0
56797.0,STARLINK-6058,PAYLOAD,2024-04-29 12:07:14,14.98329367,0.0002821,70.0005,256.9664,264.5326,95.5511,7.2446e-05,7.72e-06,0.0,0 STARLINK-6058,1 56797U 23078AG  24120.50503447  .00000772  00000-0  72446-4 0  9994,2 56797  70.0005 256.9664 0002821 264.5326  95.5511 14.98329367 51203,6950.195,96.107,574.02,570.099,0.0
56797.0,STARLINK-6058,PAYLOAD,2024-04-29 13:43:22,14.98330445,0.0002796,70.0008,256.7988,264.3978,95.6862,9.3707e-05,1.025e-05,0.0,0 STARLINK-6058,1 56797U 23078AG  24120.57179346  .00001025  00000-0  93707-4 0  9993,2 56797  70.0008 256.7988 0002796 264.3978  95.6862 14.98330445 50955,6950.192,96.107,574.0,570.113,0.0
56797.0,STARLINK-6058,PAYLOAD,2024-04-29 18:31:46,14.98334741,0.0002795,70.0009,256.294,266.8673,93.2166,0.00011383,1.266e-05,0.0,0 STARLINK-6058,1 56797U 23078AG  24120.77206996  .00001266  00000-0  11383-3 0  9993,2 56797  70.0009 256.2940 0002795 266.8673  93.2166 14.98334741 50984,6950.178,96.107,573.986,570.101,0.0
56797.0,STARLINK-6058,PAYLOAD,2024-04-30 12:09:15,14.9832658,0.0002841,70.0008,254.4416,270.5172,89.5662,0.0001658,1.886e-05,0.0,0 STARLINK-6058,1 56797U 23078AG  24121.50643291  .00001886  00000-0  16580-3 0  9990,2 56797  70.0008 254.4416 0002841 270.5172  89.5662 14.98326580 51352,6950.203,96.107,574.043,570.094,0.0
56797.0,STARLINK-6058,PAYLOAD,2024-04-30 13:45:23,14.98326303,0.0002853,70.001,254.2732,270.515,89.5682,0.00016733,1.904e-05,0.0,0 STARLINK-6058,1 56797U 23078AG  24121.57319314  .00001904  00000-0  16733-3 0  9994,2 56797  70.0010 254.2732 0002853 270.5150  89.5682 14.98326303 51101,6950.204,96.107,574.052,570.086,0.0
56797.0,STARLINK-6058,PAYLOAD,2024-04-30 18:33:47,14.98329061,0.0002756,70.0007,253.7674,264.4346,95.6498,0.00015852,1.799e-05,0.0,0 STARLINK-6058,1 56797U 23078AG  24121.77347152  .00001799  00000-0  15852-3 0  9990,2 56797  70.0007 253.7674 0002756 264.4346  95.6498 14.98329061 51137,6950.196,96.107,573.976,570.145,0.0
56797.0,STARLINK-6058,PAYLOAD,2024-05-01 07:22:52,14.98331742,0.0002961,70.0011,252.4205,269.0585,91.0234,3.0753e-05,2.74e-06,0.0,0 STARLINK-6058,1 56797U 23078AG  24122.30755238  .00000274  00000-0  30753-4 0  9993,2 56797  70.0011 252.4205 0002961 269.0585  91.0234 14.98331742 51218,6950.188,96.107,574.11,569.995,0.0
